start=new Date('2023-02-28T00:00:00.000Z').valueOf();
sats=[{"APOAPSIS":"547.974","EPHEMERIS_TYPE":"0","COUNTRY_CODE":"US","TLE_LINE2":"2 47596  53.0539 326.3093 0001366  84.7579 275.3566 15.06460577113820","MEAN_MOTION":"15.06460577","ELEMENT_SET_NO":"999","EPOCH":"2023-02-27T18:21:46.078560","TIME_SYSTEM":"UTC","ECCENTRICITY":"0.00013660","FILE":"3846812","DECAY_DATE":null,"MEAN_ANOMALY":"275.3566","SITE":"AFETR","TLE_LINE1":"1 47596U 21009BA  23058.76511665  .00031050  00000-0  20908-2 0  9998","RA_OF_ASC_NODE":"326.3093","SEMIMAJOR_AXIS":"6925.163","PERIOD":"95.588","NORAD_CAT_ID":"47596","CENTER_NAME":"EARTH","REF_FRAME":"TEME","MEAN_ELEMENT_THEORY":"SGP4","BSTAR":"0.00209080000000","MEAN_MOTION_DOT":"0.00031050","MEAN_MOTION_DDOT":"0.0000000000000","OBJECT_ID":"2021-009BA","OBJECT_NAME":"STARLINK-2001","RCS_SIZE":"LARGE","GP_ID":"227193340","PERIAPSIS":"546.082","LAUNCH_DATE":"2021-02-04","CLASSIFICATION_TYPE":"U","OBJECT_TYPE":"PAYLOAD","REV_AT_EPOCH":"11382","ARG_OF_PERICENTER":"84.7579","INCLINATION":"53.0539"},{"SEMIMAJOR_AXIS":"6925.164","RA_OF_ASC_NODE":"329.0258","TLE_LINE1":"1 47597U 21009BB  23058.16063602  .00033919  00000-0  22814-2 0  9990","PERIOD":"95.588","DECAY_DATE":null,"FILE":"3846396","SITE":"AFETR","MEAN_ANOMALY":"263.5699","TIME_SYSTEM":"UTC","EPOCH":"2023-02-27T03:51:18.952128","ELEMENT_SET_NO":"999","ECCENTRICITY":"0.00012900","COUNTRY_CODE":"US","EPHEMERIS_TYPE":"0","APOAPSIS":"547.923","MEAN_MOTION":"15.06460059","TLE_LINE2":"2 47597  53.0523 329.0258 0001290  96.5437 263.5699 15.06460059113738","CLASSIFICATION_TYPE":"U","ARG_OF_PERICENTER":"96.5437","INCLINATION":"53.0523","REV_AT_EPOCH":"11373","OBJECT_TYPE":"PAYLOAD","GP_ID":"227158398","RCS_SIZE":"LARGE","LAUNCH_DATE":"2021-02-04","PERIAPSIS":"546.136","OBJECT_ID":"2021-009BB","MEAN_MOTION_DDOT":"0.0000000000000","MEAN_MOTION_DOT":"0.00033919","OBJECT_NAME":"STARLINK-2002","NORAD_CAT_ID":"47597","BSTAR":"0.00228140000000","REF_FRAME":"TEME","MEAN_ELEMENT_THEORY":"SGP4","CENTER_NAME":"EARTH"},{"OBJECT_NAME":"STARLINK-2003","MEAN_MOTION_DOT":"0.00020313","MEAN_MOTION_DDOT":"0.0000000000000","OBJECT_ID":"2021-009BC","MEAN_ELEMENT_THEORY":"SGP4","REF_FRAME":"TEME","CENTER_NAME":"EARTH","BSTAR":"0.00137760000000","NORAD_CAT_ID":"47598","OBJECT_TYPE":"PAYLOAD","REV_AT_EPOCH":"11415","ARG_OF_PERICENTER":"110.0828","INCLINATION":"53.0531","CLASSIFICATION_TYPE":"U","PERIAPSIS":"546.424","LAUNCH_DATE":"2021-02-04","GP_ID":"227158148","RCS_SIZE":"LARGE","ECCENTRICITY":"0.00010150","ELEMENT_SET_NO":"999","EPOCH":"2023-02-27T02:30:23.152032","TIME_SYSTEM":"UTC","TLE_LINE2":"2 47598  53.0531 299.2757 0001015 110.0828 250.0271 15.06428361114155","MEAN_MOTION":"15.06428361","APOAPSIS":"547.830","EPHEMERIS_TYPE":"0","COUNTRY_CODE":"US","PERIOD":"95.590","TLE_LINE1":"1 47598U 21009BC  23058.10443463  .00020313  00000-0  13776-2 0  9993","RA_OF_ASC_NODE":"299.2757","SEMIMAJOR_AXIS":"6925.262","MEAN_ANOMALY":"250.0271","SITE":"AFETR","FILE":"3846396","DECAY_DATE":null},{"NORAD_CAT_ID":"47599","CENTER_NAME":"EARTH","MEAN_ELEMENT_THEORY":"SGP4","REF_FRAME":"TEME","BSTAR":"0.00116770000000","MEAN_MOTION_DOT":"0.00017173","OBJECT_ID":"2021-009BD","MEAN_MOTION_DDOT":"0.0000000000000","OBJECT_NAME":"STARLINK-2004","GP_ID":"227192591","RCS_SIZE":"LARGE","PERIAPSIS":"546.411","LAUNCH_DATE":"2021-02-04","CLASSIFICATION_TYPE":"U","REV_AT_EPOCH":"11440","OBJECT_TYPE":"PAYLOAD","ARG_OF_PERICENTER":"93.9060","INCLINATION":"53.0534","EPHEMERIS_TYPE":"0","COUNTRY_CODE":"US","APOAPSIS":"547.771","TLE_LINE2":"2 47599  53.0534 285.7414 0000982  93.9060 266.2041 15.06439949114404","MEAN_MOTION":"15.06439949","TIME_SYSTEM":"UTC","EPOCH":"2023-02-27T21:22:14.669184","ELEMENT_SET_NO":"999","ECCENTRICITY":"0.00009820","FILE":"3846812","DECAY_DATE":null,"MEAN_ANOMALY":"266.2041","SITE":"AFETR","TLE_LINE1":"1 47599U 21009BD  23058.89044756  .00017173  00000-0  11677-2 0  9990","SEMIMAJOR_AXIS":"6925.226","RA_OF_ASC_NODE":"285.7414","PERIOD":"95.590"},{"TIME_SYSTEM":"UTC","ELEMENT_SET_NO":"999","EPOCH":"2023-02-27T21:59:23.223264","ECCENTRICITY":"0.00019880","COUNTRY_CODE":"US","EPHEMERIS_TYPE":"0","APOAPSIS":"548.423","MEAN_MOTION":"15.06454713","TLE_LINE2":"2 47600  53.0539 285.5976 0001988 100.8528 259.2685 15.06454713114410","SEMIMAJOR_AXIS":"6925.181","RA_OF_ASC_NODE":"285.5976","TLE_LINE1":"1 47600U 21009BE  23058.91624101  .00027719  00000-0  18697-2 0  9990","PERIOD":"95.589","DECAY_DATE":null,"FILE":"3846812","SITE":"AFETR","MEAN_ANOMALY":"259.2685","OBJECT_ID":"2021-009BE","MEAN_MOTION_DDOT":"0.0000000000000","MEAN_MOTION_DOT":"0.00027719","OBJECT_NAME":"STARLINK-2005","NORAD_CAT_ID":"47600","BSTAR":"0.00186970000000","CENTER_NAME":"EARTH","MEAN_ELEMENT_THEORY":"SGP4","REF_FRAME":"TEME","CLASSIFICATION_TYPE":"U","INCLINATION":"53.0539","ARG_OF_PERICENTER":"100.8528","REV_AT_EPOCH":"11441","OBJECT_TYPE":"PAYLOAD","GP_ID":"227192841","RCS_SIZE":"LARGE","LAUNCH_DATE":"2021-02-04","PERIAPSIS":"545.669"},{"PERIAPSIS":"545.945","LAUNCH_DATE":"2021-02-04","GP_ID":"227193593","RCS_SIZE":"LARGE","INCLINATION":"53.0547","ARG_OF_PERICENTER":"94.1082","OBJECT_TYPE":"PAYLOAD","REV_AT_EPOCH":"11440","CLASSIFICATION_TYPE":"U","BSTAR":"0.00154370000000","MEAN_ELEMENT_THEORY":"SGP4","REF_FRAME":"TEME","CENTER_NAME":"EARTH","NORAD_CAT_ID":"47601","OBJECT_NAME":"STARLINK-2006","MEAN_MOTION_DDOT":"0.0000000000000","OBJECT_ID":"2021-009BF","MEAN_MOTION_DOT":"0.00022814","SITE":"AFETR","MEAN_ANOMALY":"266.0094","DECAY_DATE":null,"FILE":"3846812","PERIOD":"95.589","RA_OF_ASC_NODE":"285.7221","SEMIMAJOR_AXIS":"6925.216","TLE_LINE1":"1 47601U 21009BF  23058.89413526  .00022814  00000-0  15437-2 0  9995","MEAN_MOTION":"15.06443214","TLE_LINE2":"2 47601  53.0547 285.7221 0001640  94.1082 266.0094 15.06443214114403","APOAPSIS":"548.217","EPHEMERIS_TYPE":"0","COUNTRY_CODE":"US","ECCENTRICITY":"0.00016400","ELEMENT_SET_NO":"999","EPOCH":"2023-02-27T21:27:33.286464","TIME_SYSTEM":"UTC"},{"CLASSIFICATION_TYPE":"U","REV_AT_EPOCH":"11426","OBJECT_TYPE":"PAYLOAD","INCLINATION":"53.0518","ARG_OF_PERICENTER":"94.6465","GP_ID":"227194343","RCS_SIZE":"LARGE","LAUNCH_DATE":"2021-02-04","PERIAPSIS":"546.303","MEAN_MOTION_DOT":"0.00009404","OBJECT_ID":"2021-009BG","MEAN_MOTION_DDOT":"0.0000000000000","OBJECT_NAME":"STARLINK-2007","NORAD_CAT_ID":"47602","MEAN_ELEMENT_THEORY":"SGP4","CENTER_NAME":"EARTH","REF_FRAME":"TEME","BSTAR":"0.00064873000000","TLE_LINE1":"1 47602U 21009BG  23058.91532606  .00009404  00000-0  64873-3 0  9999","SEMIMAJOR_AXIS":"6925.238","RA_OF_ASC_NODE":"295.6358","PERIOD":"95.590","FILE":"3846812","DECAY_DATE":null,"MEAN_ANOMALY":"265.4656","SITE":"AFETR","TIME_SYSTEM":"UTC","EPOCH":"2023-02-27T21:58:04.171584","ELEMENT_SET_NO":"999","ECCENTRICITY":"0.00011540","COUNTRY_CODE":"US","EPHEMERIS_TYPE":"0","APOAPSIS":"547.902","TLE_LINE2":"2 47602  53.0518 295.6358 0001154  94.6465 265.4656 15.06436197114266","MEAN_MOTION":"15.06436197"},{"EPOCH":"2023-02-27T03:08:51.118944","ELEMENT_SET_NO":"999","TIME_SYSTEM":"UTC","ECCENTRICITY":"0.00011940","APOAPSIS":"547.923","COUNTRY_CODE":"US","EPHEMERIS_TYPE":"0","MEAN_MOTION":"15.06438389","TLE_LINE2":"2 47603  53.0534 329.1565 0001194  95.4514 264.6611 15.06438389113723","RA_OF_ASC_NODE":"329.1565","SEMIMAJOR_AXIS":"6925.231","TLE_LINE1":"1 47603U 21009BH  23058.13114721  .00023151  00000-0  15664-2 0  9996","PERIOD":"95.590","DECAY_DATE":null,"FILE":"3846396","SITE":"AFETR","MEAN_ANOMALY":"264.6611","MEAN_MOTION_DDOT":"0.0000000000000","OBJECT_ID":"2021-009BH","MEAN_MOTION_DOT":"0.00023151","OBJECT_NAME":"STARLINK-2008","NORAD_CAT_ID":"47603","BSTAR":"0.00156640000000","MEAN_ELEMENT_THEORY":"SGP4","CENTER_NAME":"EARTH","REF_FRAME":"TEME","CLASSIFICATION_TYPE":"U","ARG_OF_PERICENTER":"95.4514","INCLINATION":"53.0534","OBJECT_TYPE":"PAYLOAD","REV_AT_EPOCH":"11372","GP_ID":"227157397","RCS_SIZE":"LARGE","LAUNCH_DATE":"2021-02-04","PERIAPSIS":"546.269"},{"NORAD_CAT_ID":"47604","REF_FRAME":"TEME","MEAN_ELEMENT_THEORY":"SGP4","CENTER_NAME":"EARTH","BSTAR":"0.00195500000000","MEAN_MOTION_DOT":"0.00029001","OBJECT_ID":"2021-009BJ","MEAN_MOTION_DDOT":"0.0000000000000","OBJECT_NAME":"STARLINK-2021","RCS_SIZE":"LARGE","GP_ID":"227193341","PERIAPSIS":"546.161","LAUNCH_DATE":"2021-02-04","CLASSIFICATION_TYPE":"U","REV_AT_EPOCH":"11427","OBJECT_TYPE":"PAYLOAD","INCLINATION":"53.0533","ARG_OF_PERICENTER":"78.3437","EPHEMERIS_TYPE":"0","COUNTRY_CODE":"US","APOAPSIS":"547.937","TLE_LINE2":"2 47604  53.0533 295.6032 0001282  78.3437 281.7696 15.06453658114271","MEAN_MOTION":"15.06453658","TIME_SYSTEM":"UTC","ELEMENT_SET_NO":"999","EPOCH":"2023-02-27T22:08:41.292096","ECCENTRICITY":"0.00012820","FILE":"3846812","DECAY_DATE":null,"MEAN_ANOMALY":"281.7696","SITE":"AFETR","TLE_LINE1":"1 47604U 21009BJ  23058.92270014  .00029001  00000-0  19550-2 0  9990","SEMIMAJOR_AXIS":"6925.184","RA_OF_ASC_NODE":"295.6032","PERIOD":"95.589"},{"MEAN_MOTION_DOT":"0.00027239","MEAN_MOTION_DDOT":"0.0000000000000","OBJECT_ID":"2021-009BL","OBJECT_NAME":"STARLINK-2024","NORAD_CAT_ID":"47606","REF_FRAME":"TEME","MEAN_ELEMENT_THEORY":"SGP4","CENTER_NAME":"EARTH","BSTAR":"0.00183880000000","CLASSIFICATION_TYPE":"U","OBJECT_TYPE":"PAYLOAD","REV_AT_EPOCH":"11427","ARG_OF_PERICENTER":"77.3158","INCLINATION":"53.0532","GP_ID":"227194093","RCS_SIZE":"LARGE","PERIAPSIS":"546.216","LAUNCH_DATE":"2021-02-04","EPOCH":"2023-02-27T22:13:59.489472","ELEMENT_SET_NO":"999","TIME_SYSTEM":"UTC","ECCENTRICITY":"0.00012890","APOAPSIS":"548.001","COUNTRY_CODE":"US","EPHEMERIS_TYPE":"0","TLE_LINE2":"2 47606  53.0532 295.5834 0001289  77.3158 282.7975 15.06434174114270","MEAN_MOTION":"15.06434174","TLE_LINE1":"1 47606U 21009BL  23058.92638298  .00027239  00000-0  18388-2 0  9993","RA_OF_ASC_NODE":"295.5834","SEMIMAJOR_AXIS":"6925.244","PERIOD":"95.590","FILE":"3846812","DECAY_DATE":null,"MEAN_ANOMALY":"282.7975","SITE":"AFETR"}];
